[Satellite]
VERSION=1.1
NAME=GSAT0208 (PRN E08)
NICKNAME=GSAT0208 (PRN E08)
TLE1=1 41175U 15079B   22341.70868911  .00000042  00000+0  00000+0 0  9996
TLE2=2 41175  55.2056 136.6376 0001054 350.8143   9.1522  1.70474551 43245
STATUS=0
